INTERCOSMOS 24          
1 20261U 89080A   25213.50537361  .00000767  00000+0  21649-3 0  9993
2 20261  82.6019 247.5875 1191015  83.6454 289.8620 12.59107587639081
SL-14 R/B               
1 20262U 89080C   25213.35218804  .00000162  00000+0  47093-4 0  9996
2 20262  82.5966 314.6812 1230500 328.4402  24.8200 12.50321917632614
DELTA 1 R/B             
1 20323U 89089B   25213.50099504  .00000342  00000+0  93377-4 0  9990
2 20323  97.0979  90.7215 0070924  97.9910 262.9344 14.50424460863810
ARIANE 40 R/B           
1 20443U 90005H   25213.16396584  .00000272  00000+0  10057-3 0  9998
2 20443  98.3431 274.9780 0010952 143.3543 216.8396 14.39664935861077
DELTA 2 R/B(1)          
1 20453U 90008B   25213.30394995  .00034338  00000+0  73524-3 0  9990
2 20453  35.6073 155.0457 0131178  47.2406 313.9275 15.35062942892052
COSMOS 2058             
1 20465U 90010A   25213.60459969  .00003196  00000+0  19961-3 0  9995
2 20465  82.4736 263.7890 0007930  20.5808 339.5738 15.09132206909023
SL-14 R/B               
1 20466U 90010B   25213.25112933  .00000413  00000+0  47480-4 0  9991
2 20466  82.5031 114.3881 0018714 309.5065  50.4494 14.83295070895809
SL-14 R/B               
1 20511U 90018B   25213.59758709  .00000402  00000+0  47723-4 0  9992
2 20511  82.5192  68.7847 0017868  95.9077 264.4174 14.81876422889988
HST                     
1 20580U 90037B   25213.05470067  .00006847  00000+0  25257-3 0  9994
2 20580  28.4678 100.6954 0001723 223.6882 136.3576 15.25737045739549
SL-16 R/B               
1 20625U 90046B   25212.92349877  .00000274  00000+0  16593-3 0  9994
2 20625  70.9988  41.5439 0016208 278.6701  81.2586 14.14969509817163
COSMOS 2084             
1 20663U 90055A   25213.49656488  .00003747  00000+0  27670-3 0  9994
2 20663  62.7920   5.5801 0053957 159.3188 201.0112 15.03903598903189
SL-6 R/B(2)             
1 20666U 90055D   25213.53529055  .00001989  00000+0  16457-3 0  9998
2 20666  62.7838 281.6854 0019398 205.2755 154.7397 15.02200978905101
SL-8 R/B                
1 20775U 90078B   25213.15140234  .00022698  00000+0  73824-3 0  9991
2 20775  82.9058  88.1960 0398335  31.0250 331.3838 14.79605265776586
SL-8 R/B                
1 21088U 91006B   25213.38797146  .00000105  00000+0  90834-4 0  9996
2 21088  82.9457 333.9283 0021178 293.4916 126.4070 13.77467150733745
OKEAN-3                 
1 21397U 91039A   25213.50850001  .00003006  00000+0  22114-3 0  9997
2 21397  82.5176 189.8583 0014552   8.0969 352.0489 15.02981620831944
COSMOS 2151             
1 21422U 91042A   25213.54530542  .00001631  00000+0  13226-3 0  9995
2 21422  82.4980 295.7914 0014062  84.9815 275.3013 14.98990500830208
SL-14 R/B               
1 21423U 91042B   25213.53761871  .00000367  00000+0  43789-4 0  9999
2 21423  82.4909  66.6094 0015732 242.4351 117.5265 14.81574227820475
ERS-1                   
1 21574U 91050A   25213.46984207  .00000318  00000+0  11689-3 0  9996
2 21574  98.7928 221.1394 0032934 134.0628 226.3279 14.39224014784056
ARIANE 40 R/B           
1 21610U 91050F   25213.14246027  .00000301  00000+0  10327-3 0  9993
2 21610  98.2364 268.2434 0003735  42.3860 317.7618 14.42665886787199
INTERCOSMOS 25          
1 21819U 91086A   25213.25556518  .00001112  00000+0  22012-3 0  9999
2 21819  82.6023  83.2159 1489642 231.8613 113.8829 12.11133897469995
SL-8 R/B                
1 21876U 92008B   25213.18047800  .00000109  00000+0  95917-4 0  9998
2 21876  82.9243  71.7738 0035501  32.4564  88.3992 13.75939630679091
SL-8 R/B                
1 21938U 92020B   25213.36154803  .00000081  00000+0  68103-4 0  9999
2 21938  82.9331 317.3917 0028925 190.2032 230.3201 13.75517552670842
USA 81                  
1 21949U 92023A   25213.59845627  .00000151  00000+0  48682-4 0  9998
2 21949  85.0047 258.3758 0002324  72.4302 287.7145 14.32257383 63289
COSMOS 2219             
1 22219U 92076A   25213.16735679 -.00000235  00000+0 -98657-4 0  9997
2 22219  71.0609 119.0464 0018065 185.1412 174.9528 14.14035503687203
SL-16 R/B               
1 22220U 92076B   25213.49759969  .00000149  00000+0  98244-4 0  9997
2 22220  71.0005 292.1907 0010764  66.7984  21.3163 14.16811030690647
COSMOS 2221             
1 22236U 92080A   25213.25470642  .00001791  00000+0  16119-3 0  9995
2 22236  82.5061 129.9975 0013627 207.6094 152.4406 14.95023285747849
SL-16 R/B               
1 22285U 92093B   25213.10373759  .00000303  00000+0  17957-3 0  9997
2 22285  71.0217 107.3218 0006304 279.2100  80.8310 14.15401853681945
COSMOS 2228             
1 22286U 92094A   25213.60990199  .00002007  00000+0  17675-3 0  9997
2 22286  82.5168  87.8172 0017643 327.5663  32.4473 14.95880388743144
SL-16 R/B               
1 22566U 93016B   25213.47561784  .00000258  00000+0  15712-3 0  9998
2 22566  71.0092 317.6829 0012176 293.7378  66.2467 14.15262265671014
COSMOS 2242             
1 22626U 93024A   25213.30234440  .00001911  00000+0  17071-3 0  9999
2 22626  82.5198 117.2892 0015935 332.1451  27.8915 14.95329114747442
SL-16 R/B               
1 22803U 93059B   25213.18924370  .00000215  00000+0  13037-3 0  9992
2 22803  70.9908 116.1048 0017508 193.5096 166.5562 14.17183255648292
ARIANE 40 R/B           
1 22830U 93061H   25213.16052635  .00000203  00000+0  90652-4 0  9995
2 22830  98.5243 281.0043 0010157 211.4750 148.5827 14.32684610662521
COSMOS 2278             
1 23087U 94023A   25213.50000323  .00000328  00000+0  19637-3 0  9995
2 23087  71.0526 275.7534 0008834 352.3222   7.7764 14.14307069613677
SL-16 R/B               
1 23088U 94023B   25213.29470966  .00000216  00000+0  13616-3 0  9993
2 23088  70.9988 173.7205 0005445 270.7767  89.2731 14.14971231614917
SL-16 R/B               
1 23343U 94074B   25213.07166014  .00000442  00000+0  66342-4 0  9991
2 23343  97.7368 247.5446 0005829 208.7303 204.9453 14.79084229654633
SL-16 R/B               
1 23405U 94077B   25213.07958865  .00000197  00000+0  12500-3 0  9999
2 23405  70.9825  96.5991 0002056 192.5095 167.5977 14.15521721585010
ARIANE 40+ R/B          
1 23561U 95021B   25213.22268088  .00000271  00000+0  10078-3 0  9991
2 23561  98.4810 282.3141 0007953  84.7566 342.5326 14.39560092587521
SL-16 R/B               
1 23705U 95058B   25213.49964320  .00000069  00000+0  59875-4 0  9996
2 23705  71.0217 282.5285 0010298  96.1070 264.1227 14.15457672536697
SL-16 R/B               
1 24298U 96051B   25213.48458995 -.00000154  00000+0 -56978-4 0  9991
2 24298  70.7645 281.3032 0013165 102.5891 257.6702 14.12404064490555
ORBVIEW 2 (SEASTAR)     
1 24883U 97037A   25213.49131456  .00000335  00000+0  13318-3 0  9996
2 24883  98.8319   7.3280 0002224  17.9194 342.2068 14.35279562476888
SL-16 R/B               
1 25400U 98043G   25213.48330650  .00000066  00000+0  46480-4 0  9994
2 25400  98.7893 160.7292 0008872 296.6241  63.4029 14.25981263407601
SL-16 R/B               
1 25407U 98045B   25213.47716460 -.00000226  00000+0 -90042-4 0  9992
2 25407  71.0111 284.6628 0007813 343.8064  16.2809 14.16145989395926
ISS (ZARYA)             
1 25544U 98067A   25213.72485941  .00012028  00000+0  21629-3 0  9998
2 25544  51.6365  81.3637 0002173 140.2948 304.1066 15.50276953522223
CZ-4B R/B               
1 25732U 99025C   25213.12560302  .00000040  00000+0  40377-4 0  9994
2 25732  98.6967 257.2292 0036062 258.6907 158.9485 14.18200912356900
OKEAN-O                 
1 25860U 99039A   25213.53275043  .00000682  00000+0  97361-4 0  9998
2 25860  97.9802 270.2468 0001190  68.3426 291.7912 14.79864543401824
SL-16 R/B               
1 25861U 99039B   25213.59055415  .00000550  00000+0  77347-4 0  9990
2 25861  98.0329 267.5843 0013631 249.4240 110.5511 14.81332133404279
DELTA 2 R/B             
1 25876U 99041E   25213.21379063  .00002712  00000+0  47629-3 0  9997
2 25876  51.7609 101.2255 0506920  58.1470 306.7773 14.10897403331895
HELIOS 1B               
1 25977U 99064A   25213.28999769  .00001411  00000+0  16569-3 0  9996
2 25977  98.1888 104.0141 0002459  76.5179 283.6309 14.86597286652505
TERRA                   
1 25994U 99068A   25213.59905049  .00000458  00000+0  10299-3 0  9995
2 25994  97.9951 270.0125 0003119 134.8389  24.1193 14.60749281362944
SL-16 R/B               
1 26070U 00006B   25213.36497182  .00000247  00000+0  14981-3 0  9992
2 26070  71.0002 201.0839 0015866 164.3318 195.8300 14.15779516317375
TITAN 4B R/B            
1 26474U 00047B   25213.56257105  .00003114  00000+0  20845-3 0  9998
2 26474  67.9905 298.4603 0048020 286.5069  73.0806 15.07444484359713
ENVISAT                 
1 27386U 02009A   25213.40827368  .00000113  00000+0  50295-4 0  9997
2 27386  98.3363 167.7061 0001258  82.7170  28.1127 14.38932321227490
IDEFIX & ARIANE 42P R/B 
1 27422U 02021B   25213.37202384  .00000254  00000+0  11326-3 0  9990
2 27422  98.5609 149.9508 0012900 113.4773 246.7768 14.30817644212519
AQUA                    
1 27424U 02022A   25213.53536288  .00000960  00000+0  20401-3 0  9992
2 27424  98.3806 172.4656 0000734  89.3941 334.3124 14.61378142236619
CZ-4B R/B               
1 27432U 02024C   25213.61247112  .00000027  00000+0  37443-4 0  9996
2 27432  98.9204 262.6864 0049152 288.1148 235.1069 14.14493751198125
MIDORI II (ADEOS-II)    
1 27597U 02056A   25213.48245623  .00000288  00000+0  13160-3 0  9991
2 27597  98.7401 165.9193 0000389  29.9070 330.2133 14.29077811178845
H-2A R/B                
1 27601U 02056E   25213.52232175  .00000326  00000+0  12887-3 0  9998
2 27601  98.2824 177.7573 0071747  97.6424  14.1318 14.33535400182564
CZ-4B R/B               
1 28059U 03049C   25213.51074285  .00000349  00000+0  92083-4 0  9996
2 28059  98.6626 195.1436 0048332 182.2658 177.8326 14.54719019154582
CZ-2C R/B               
1 28222U 04012C   25213.11579025  .00022476  00000+0  45631-3 0  9998
2 28222  97.7630 255.6506 0022706  38.8787 321.4089 15.46081133170026
